AO-07
1 07530U 74089B   26133.98839295 -.00000029  00000+0  11198-3 0  9995
2 07530 101.9916 146.8769 0012161 194.6235 221.6905 12.53697521356231
PHASE 3B (AO-10)
1 14129U 83058B   26133.40708788  .00000212  00000+0  00000+0 0  9991
2 14129  25.8949 225.3467 6023014 106.0881 324.7581  2.05870193294779
UO-11
1 14781U 84021B   26133.45203940  .00000849  00000+0  92245-4 0  9994
2 14781  97.8037  99.4225 0006305 306.6451  53.4187 14.90698287251951
AO-27
1 22825U 93061C   26133.17764638  .00000044  00000+0  33770-4 0  9996
2 22825  98.6891 200.6008 0008065 195.5210 164.5726 14.30932290701990
FO-29
1 24278U 96046B   26133.56109654 -.00000014  00000+0  21469-4 0  9990
2 24278  98.5277 347.1695 0349746 186.1353 173.5447 13.53272352468482
GO-32
1 25397U 98043D   26133.50474968  .00000028  00000+0  32496-4 0  9995
2 25397  99.0065 125.3907 0000980  12.1123 348.0079 14.24421378446394
ISS
1 25544U 98067A   26133.42450845  .00004975  00000+0  97698-4 0  9994
2 25544  51.6312 112.1826 0007529  54.1813 305.9874 15.49204198566361
NO-44
1 26931U 01043C   26133.93490749  .00000059  00000+0  52955-4 0  9992
2 26931  67.0511 332.8642 0006272 263.6520  96.3868 14.31942229285543
SO-50
1 27607U 02058C   26133.49414856  .00000609  00000+0  89700-4 0  9995
2 27607  64.5522 236.3170 0075640 268.8072  90.4367 14.82971209259317
CO-55
1 27844U 03031E   26133.96662766  .00000191  00000+0  10178-3 0  9995
2 27844  98.6747 142.9554 0008324 287.2736  72.7532 14.24313628186803
RS-22
1 27939U 03042A   26133.99680154  .00000622  00000+0  10416-3 0  9990
2 27939  98.3472 317.3923 0011841  23.3868  95.8724 14.73405031210510
CO-65
1 32785U 08021C   26133.90610852  .00003201  00000+0  20590-3 0  9996
2 32785  97.8259 114.6252 0010065 137.4666 222.7343 15.09111750980025
CO-66
1 32791U 08021J   26133.97786064  .00012151  00000+0  40134-3 0  9999
2 32791  97.7520 130.2774 0004981  82.4291 277.7515 15.31540490982056
RS-30
1 32953U 08025A   26133.89528716 -.00000123  00000+0 -95871-3 0  9998
2 32953  82.5073  16.7714 0020302  28.5389 331.6798 12.43177337815433
SRMSAT
1 37841U 11058D   26133.43846407  .00000365  00000+0  54247-4 0  9998
2 37841  19.9724 269.8009 0011671 181.4461 226.2347 14.11567807752901
ZACUBE-1
1 39417U 13066B   26133.87678758  .00003054  00000+0  24041-3 0  9996
2 39417  97.8119  96.0275 0041751   8.5716 351.6211 15.00914347675589
TRITON-1
1 39427U 13066M   26133.92067863  .00002058  00000+0  25133-3 0  9998
2 39427  97.8266  44.5079 0090074 347.1653  12.7267 14.81551985669017
GOMX-1
1 39430U 13066Q   26133.93289039  .00001094  00000+0  17105-3 0  9993
2 39430  97.6515 336.5562 0128512 186.8684 173.0767 14.69319389664880
LO-74
1 39440U 13066AA  26133.42777408  .00001579  00000+0  15075-3 0  9992
2 39440  97.8890  82.2722 0058865 141.3076 219.2383 14.93493448671809
AO-73
1 39444U 13066AE  26133.91230463  .00005221  00000+0  32957-3 0  9991
2 39444  97.8259 104.6589 0035249 323.1335  36.7470 15.09032185674493
DTUSAT-2
1 40030U 14033W   26133.95397936  .00004554  00000+0  25088-3 0  9997
2 40030  98.0864 129.5221 0007814   5.7147 354.4171 15.14553341647509
METEOR-M-2
1 40069U 14037A   26133.93590816 -.00000252  00000+0 -96017-4 0  9997
2 40069  98.5095 110.8913 0006583 127.7057 232.4718 14.21450681614450
LILACSAT-2
1 40908U 15049K   26133.94573169  .00012605  00000+0  22417-3 0  9991
2 40908  97.4694 169.5096 0007528  34.1855 325.9879 15.50277769590440
Horyu-4
1 41340U 16012D   26133.68948449  .00132750  00000+0  72995-3 0  9991
2 41340  30.9895 328.5167 0005335  30.7718 329.3251 15.78201025565330
Lapan A3
1 41603U 16040E   26133.98730611  .00002290  00000+0  74317-4 0  9993
2 41603  97.1485 131.2644 0011774 131.3505 228.8753 15.32882689549576
TechnoSat
1 42829U 17042E   26133.93829993  .00001795  00000+0  13124-3 0  9991
2 42829  97.4240 292.9131 0017098 207.0563 152.9774 15.04734458481557
NOAA 20
1 43011U 17072B   26133.99505113 -.00000067  00000+0 -78464-5 0  9992
2 43011  98.9572 151.5870 0008797 251.7426 108.2797 14.28774606442476
AO-91
1 43017U 17073E   26133.14210923  .00005670  00000+0  24989-3 0  9992
2 43017  97.4759   1.0860 0154122  89.6523 272.2366 15.12056379460097
S-Net D
1 43186U 18014G   26133.55663534  .00003179  00000+0  16729-3 0  9995
2 43186  97.5393  38.5683 0009607 130.3401 229.8672 15.16332908453519
S-Net B
1 43187U 18014H   26133.69939626  .00003049  00000+0  16071-3 0  9995
2 43187  97.5397  38.6956 0010349 126.3271 233.8918 15.16304152453533
S-Net A
1 43188U 18014J   26133.29172531  .00003006  00000+0  15833-3 0  9994
2 43188  97.5407  38.4927 0010204 128.1780 232.0374 15.16337876453476
S-Net C
1 43189U 18014K   26133.30713307  .00002748  00000+0  14519-3 0  9991
2 43189  97.5425  38.5774 0011693 122.6220 237.6143 15.16292411452029
Ten-Koh
1 43677U 18084G   26133.50140080  .00000670  00000+0  55038-4 0  9998
2 43677  98.0763 324.4088 0008281 229.6912 130.3589 15.02777588410959
PO-101
1 43678U 18084H   26133.89032064  .00001785  00000+0  14761-3 0  9998
2 43678  98.1106 328.6286 0011927 289.5850  70.4084 15.00276958411076
QO-100
1 43700U 18090A   26133.89626238  .00000158  00000+0  00000+0 0  9993
2 43700   0.0136 273.9818 0001555 173.2142 132.9613  1.00274627 27339
MinXSS-2
1 43758U 18099A   26133.71548768  .00022104  00000+0  47612-3 0  9996
2 43758  97.4551 209.0529 0007425  41.3330 318.8479 15.44592940408802
AO-95
1 43770U 18099N   26133.92108958  .00007984  00000+0  31344-3 0  9990
2 43770  97.4409 194.3105 0010481 108.2621 251.9759 15.25937216407991
SNUSat 2
1 43782U 18099AA  26133.60971511  .00005230  00000+0  23657-3 0  9991
2 43782  97.4088 187.5347 0011666  63.3440 296.8989 15.21286961407774
SnugLite
1 43784U 18099AC  26133.93184382  .00007630  00000+0  29588-3 0  9996
2 43784  97.3900 188.5652 0004146  70.6528 289.5159 15.26399259408095
ITASat 1
1 43786U 18099AE  26133.10365260  .00004108  00000+0  20143-3 0  9998
2 43786  97.4059 185.3231 0014351 113.5192 246.7552 15.18586233407580
EAGLET 1
1 43790U 18099AJ  26133.59138362  .00002281  00000+0  13386-3 0  9998
2 43790  97.4261 184.1787 0012890 104.3962 255.8701 15.12663081407108
ESEO
1 43792U 18099AL  26133.85452471  .00001646  00000+0  12269-3 0  9992
2 43792  97.3998 172.7102 0013403  91.1733 269.1030 15.04135866406647
JO-97
1 43803U 18099AX  26133.63249072  .00010629  00000+0  34067-3 0  9993
2 43803  97.4156 196.3739 0006316  48.8793 311.2993 15.32520936408337
Suomi 100
1 43804U 18099AY  26133.89076708  .00007690  00000+0  28729-3 0  9998
2 43804  97.4216 194.4293 0010916  50.0070 310.2126 15.27593956408189
ISAT
1 43879U 18111D   26133.76532869  .00051965  00000+0  65040-3 0  9997
2 43879  97.5898  66.5029 0008212  80.9874 279.2312 15.59605424405798
UWE-4
1 43880U 18111E   26133.30495299  .00018936  00000+0  41701-3 0  9993
2 43880  97.5858  60.1511 0010672  91.3631 268.8840 15.43940846405391
Sparrow
1 43881U 18111F   26133.38724431  .00075778  00000+0  74211-3 0  9994
2 43881  97.6124  71.1844 0007611 106.2614 253.9483 15.65842908405916
Prox-1
1 44339U 19036A   26133.90675889  .00008940  00000+0  88071-3 0  9996
2 44339  23.9965 343.0870 0006559 357.6910   2.3558 14.89775846368357
Taurus 1
1 44530U 19059C   26133.98092645  .00002353  00000+0  38617-3 0  9998
2 44530  98.6387 296.7031 0009374  65.5752 294.6430 14.71709891353613
TO-108
1 44881U 19093C   26133.91650015  .00000113  00000+0  18789-4 0  9990
2 44881  97.7540 206.9835 0013010 193.5471 166.5397 14.86460103346325
RS-44
1 44909U 19096E   26133.91799968  .00000021  00000+0  44169-4 0  9994
2 44909  82.5239   2.4807 0216670 224.3214 134.0364 12.79748095297964
SALSAT
1 46495U 20068K   26133.86472839  .00005305  00000+0  18943-3 0  9996
2 46495  97.8856 134.8553 0011464  68.2062 292.0395 15.29275002310111
CSS (TIANHE-1)
1 48274U 21035A   26133.47815923  .00012315  00000+0  13972-3 0  9996
2 48274  41.4670 173.0841 0004121 296.9881  63.0537 15.62173368287748
CUTE
1 49263U 21088D   26133.22361486  .00124740  00000+0  71034-3 0  9995
2 49263  97.4192 229.5484 0001685 271.3209  88.7865 15.78597278257012
TeikyoSat 4
1 49396U 21102B   26133.51643555  .00001125  00000+0  74141-4 0  9995
2 49396  97.3698 164.3465 0013487  57.3904 302.8625 15.09379418247494
Z-Sat
1 49399U 21102E   26133.98923390  .00000960  00000+0  50323-4 0  9999
2 49399  97.3362 170.3524 0016946  13.1683 346.9990 15.17989896248250
KOSEN 1
1 49402U 21102H   26133.85990140  .00004911  00000+0  19141-3 0  9999
2 49402  97.3217 176.6917 0012681 335.8232  24.2410 15.26345575248786
HO-113
1 50466U 21131B   26133.96936122  .00000093  00000+0  42460-4 0  9993
2 50466  98.4956 226.5477 0003883 183.4673 176.6489 14.41322326230184
SNUGLITE 2
1 52899U 22065F   26133.93331845  .00000581  00000+0  11935-3 0  9994
2 52899  98.2156 278.8348 0008589 126.5948 233.6046 14.64280118205984
METEOR-M2-3
1 57166U 23091A   26133.95096054 -.00000008  00000+0  15317-4 0  9992
2 57166  98.6108 189.6253 0002753 269.1965  90.8898 14.24043677149642
UmKA 1 (RS40S)
1 57172U 23091G   26133.94085463  .00003594  00000+0  16787-3 0  9993
2 57172  97.5075 192.7764 0011605 234.2642 125.7514 15.20409886158809
CubeBel-2 (EU11S)
1 57175U 23091K   26133.94997110  .00007490  00000+0  27398-3 0  9996
2 57175  97.5075 196.8805 0009014 228.4846 131.5620 15.28321700159074
RS58S MONITOR-3
1 57180U 23091Q   26133.93651465  .00006804  00000+0  25820-3 0  9997
2 57180  97.5107 197.1471 0011124 213.1827 146.8715 15.27125326159062
RS57S MONITOR-4
1 57182U 23091S   26133.91769880  .00007013  00000+0  26525-3 0  9994
2 57182  97.5101 197.0972 0011096 213.6338 146.4198 15.27222476159068
RS-38S
1 57189U 23091Z   26133.93314595  .00011230  00000+0  33383-3 0  9998
2 57189  97.5111 202.7600 0007751 181.6018 178.5201 15.34898873159430
RS27S UTMN-2
1 57203U 23091AP  26133.89126909  .00008295  00000+0  27778-3 0  9998
2 57203  97.5108 200.6579 0008157 189.7274 170.3810 15.31176518159291
METEOR-M2-4
1 59051U 24039A   26133.99716303 -.00000010  00000+0  15009-4 0  9991
2 59051  98.6992  93.7294 0005912 269.6863  90.3637 14.22425906114409
